TOMORROW-S3             
1 62392U 24247R   26068.49782200  .00007664  00000+0  28858-3 0  9991
2 62392  44.9999 117.9871 0000396 320.9462  39.1392 15.27672122 67708
STARLINK-33687          
1 63485U 25070AB  26068.52201765  .00027211  00000+0  99377-3 0  9990
2 63485  43.0025 260.4400 0001437 266.2468  93.8220 15.27610982 52953
